$$SOE
2459580.500000000, A.D. 2022-Jan-01 00:00:00.0000, 6.487955359944893E+07, -3.284118129346737E+08, 3.321350572035170E+07,
2459587.500000000, A.D. 2022-Jan-08 00:00:00.0000, 7.598505816212402E+07, -3.240648174911498E+08, 3.234297761906379E+07,
2459594.500000000, A.D. 2022-Jan-15 00:00:00.0000, 8.699194592561674E+07, -3.192972275083893E+08, 3.143046872181438E+07,
2459601.500000000, A.D. 2022-Jan-22 00:00:00.0000, 9.788389088427335E+07, -3.141077216527461E+08, 3.047642361654340E+07,
2459608.500000000, A.D. 2022-Jan-29 00:00:00.0000, 1.086441325592625E+08, -3.084955371202263E+08, 2.948136340636221E+07,
2459615.500000000, A.D. 2022-Feb-05 00:00:00.0000, 1.192554812724372E+08, -3.024605139147682E+08, 2.844589030929220E+07,
2459622.500000000, A.D. 2022-Feb-12 00:00:00.0000, 1.297003288387707E+08, -2.960031421678909E+08, 2.737069206913714E+07,
2459629.500000000, A.D. 2022-Feb-19 00:00:00.0000, 1.399606637250677E+08, -2.891246100071038E+08, 2.625654646602963E+07,
2459636.500000000, A.D. 2022-Feb-26 00:00:00.0000, 1.500180897515292E+08, -2.818268525271516E+08, 2.510432595564514E+07,
2459643.500000000, A.D. 2022-Mar-05 00:00:00.0000, 1.598538488963909E+08, -2.741126022603354E+08, 2.391500233359958E+07,
2459650.500000000, A.D. 2022-Mar-12 00:00:00.0000, 1.694488488349567E+08, -2.659854409342924E+08, 2.268965135439526E+07,
2459657.500000000, A.D. 2022-Mar-19 00:00:00.0000, 1.787836956953291E+08, -2.574498521493430E+08, 2.142945724881990E+07,
2459664.500000000, A.D. 2022-Mar-26 00:00:00.0000, 1.878387324579245E+08, -2.485112745717359E+08, 2.013571707761487E+07,
2459671.500000000, A.D. 2022-Apr-02 00:00:00.0000, 1.965940834573868E+08, -2.391761552121406E+08, 1.880984484285116E+07,
2459678.500000000, A.D. 2022-Apr-09 00:00:00.0000, 2.050297056293113E+08, -2.294520022193913E+08, 1.745337525785397E+07,
2459685.500000000, A.D. 2022-Apr-16 00:00:00.0000, 2.131254471958524E+08, -2.193474358939242E+08, 1.606796711605304E+07,
2459692.500000000, A.D. 2022-Apr-23 00:00:00.0000, 2.208611128053292E+08, -2.088722361154185E+08, 1.465540637639835E+07,
2459699.500000000, A.D. 2022-Apr-30 00:00:00.0000, 2.282165334691679E+08, -1.980373876210934E+08, 1.321760885779771E+07,
2459706.500000000, A.D. 2022-May-07 00:00:00.0000, 2.351716444899537E+08, -1.868551242127406E+08, 1.175662199830308E+07,
2459713.500000000, A.D. 2022-May-14 00:00:00.0000, 2.417065728048402E+08, -1.753389678864711E+08, 1.027462569442127E+07,
2459720.500000000, A.D. 2022-May-21 00:00:00.0000, 2.478017316268617E+08, -1.635037610978105E+08, 8.773932360726267E+06,
2459727.500000000, A.D. 2022-May-28 00:00:00.0000, 2.534379216712335E+08, -1.513656920368589E+08, 7.256986064568177E+06,
2459734.500000000, A.D. 2022-Jun-04 00:00:00.0000, 2.585964388438345E+08, -1.389423120951917E+08, 5.726360573463663E+06,
2459741.500000000, A.D. 2022-Jun-11 00:00:00.0000, 2.632591879645406E+08, -1.262525443611687E+08, 4.184756194624864E+06,
2459748.500000000, A.D. 2022-Jun-18 00:00:00.0000, 2.674088018203400E+08, -1.133166819729085E+08, 2.634995306956142E+06,
2459755.500000000, A.D. 2022-Jun-25 00:00:00.0000, 2.710287646527842E+08, -1.001563752544943E+08, 1.080016497445732E+06,
2459762.500000000, A.D. 2022-Jul-02 00:00:00.0000, 2.741035390838394E+08, -8.679460668197733E+07, -4.771327830967456E+05,
2459769.500000000, A.D. 2022-Jul-09 00:00:00.0000, 2.766186955208648E+08, -7.325565259261766E+07, -2.033305116768237E+06,
2459776.500000000, A.D. 2022-Jul-16 00:00:00.0000, 2.785610424381039E+08, -5.956502978342042E+07, -3.585263501451850E+06,
2459783.500000000, A.D. 2022-Jul-23 00:00:00.0000, 2.799187536170655E+08, -4.574942634364516E+07, -5.129693011471624E+06,
2459790.500000000, A.D. 2022-Jul-30 00:00:00.0000, 2.806814905420120E+08, -3.183661972945131E+07, -6.663213988960385E+06,
2459797.500000000, A.D. 2022-Aug-06 00:00:00.0000, 2.808405215265017E+08, -1.785538134154318E+07, -8.182396980816530E+06,
2459804.500000000, A.D. 2022-Aug-13 00:00:00.0000, 2.803888346506124E+08, -3.835365056194121E+06, -9.683779021232268E+06,
2459811.500000000, A.D. 2022-Aug-20 00:00:00.0000, 2.793212408155270E+08, 1.019301925271998E+07, -1.116388102095727E+07,
2459818.500000000, A.D. 2022-Aug-27 00:00:00.0000, 2.776344648823006E+08, 2.419874559645739E+07, -1.261922615741299E+07,
2459825.500000000, A.D. 2022-Sep-03 00:00:00.0000, 2.753272231252504E+08, 3.815032382409441E+07, -1.404635909203813E+07,
2459832.500000000, A.D. 2022-Sep-10 00:00:00.0000, 2.724002852223074E+08, 5.201596210572477E+07, -1.544186578489034E+07,
2459839.500000000, A.D. 2022-Sep-17 00:00:00.0000, 2.688565191598694E+08, 6.576373806250085E+07, -1.680239364674343E+07,
2459846.500000000, A.D. 2022-Sep-24 00:00:00.0000, 2.647009177402979E+08, 7.936177632568973E+07, -1.812467175552738E+07,
2459853.500000000, A.D. 2022-Oct-01 00:00:00.0000, 2.599406058963146E+08, 9.277843009392388E+07, -1.940553086536370E+07,
2459860.500000000, A.D. 2022-Oct-08 00:00:00.0000, 2.545848285565554E+08, 1.059824646118685E+08, -2.064192290176265E+07,
2459867.500000000, A.D. 2022-Oct-15 00:00:00.0000, 2.486449178605088E+08, 1.189432410607320E+08, -2.183093945703782E+07,
2459874.500000000, A.D. 2022-Oct-22 00:00:00.0000, 2.421342377189319E+08, 1.316308964502355E+08, -2.296982893005276E+07,
2459881.500000000, A.D. 2022-Oct-29 00:00:00.0000, 2.350681088453760E+08, 1.440165142218089E+08, -2.405601248058607E+07,
2459888.500000000, A.D. 2022-Nov-05 00:00:00.0000, 2.274637173801113E+08, 1.560722857257215E+08, -2.508709852163143E+07,
2459895.500000000, A.D. 2022-Nov-12 00:00:00.0000, 2.193400065590655E+08, 1.677716614786980E+08, -2.606089525622496E+07,
2459902.500000000, A.D. 2022-Nov-19 00:00:00.0000, 2.107175524968650E+08, 1.790894891595320E+08, -2.697542110773989E+07,
2459909.500000000, A.D. 2022-Nov-26 00:00:00.0000, 2.016184264408825E+08, 1.900021361733837E+08, -2.782891298673464E+07,
2459916.500000000, A.D. 2022-Dec-03 00:00:00.0000, 1.920660459879515E+08, 2.004875953570704E+08, -2.861983234569822E+07,
2459923.500000000, A.D. 2022-Dec-10 00:00:00.0000, 1.820850177871222E+08, 2.105255728135696E+08, -2.934686900597796E+07,
2459930.500000000, A.D. 2022-Dec-17 00:00:00.0000, 1.717009743056678E+08, 2.200975572231694E+08, -3.000894278718822E+07,
2459937.500000000, A.D. 2022-Dec-24 00:00:00.0000, 1.609404073214742E+08, 2.291868703426898E+08, -3.060520302258679E+07,
2459944.500000000, A.D. 2022-Dec-31 00:00:00.0000, 1.498305009880010E+08, 2.377786989695622E+08, -3.113502609193190E+07,
2459951.500000000, A.D. 2023-Jan-07 00:00:00.0000, 1.383989669606680E+08, 2.458601098616569E+08, -3.159801104753482E+07,
2459958.500000000, A.D. 2023-Jan-14 00:00:00.0000, 1.266738817965381E+08, 2.534200489408269E+08, -3.199397328038846E+07,
2459965.500000000, A.D. 2023-Jan-21 00:00:00.0000, 1.146835279182130E+08, 2.604493227209192E+08, -3.232293661201514E+07,
2459972.500000000, A.D. 2023-Jan-28 00:00:00.0000, 1.024562435124008E+08, 2.669405631260689E+08, -3.258512437387323E+07,
2459979.500000000, A.D. 2023-Feb-04 00:00:00.0000, 9.002028258767803E+07, 2.728881802303981E+08, -3.278094942453150E+07,
2459986.500000000, A.D. 2023-Feb-11 00:00:00.0000, 7.740368452744564E+07, 2.782883043338213E+08, -3.291100316958281E+07,
2459993.500000000, A.D. 2023-Feb-18 00:00:00.0000, 6.463415392207927E+07, 2.831387182285854E+08, -3.297604385725169E+07,
2460000.500000000, A.D. 2023-Feb-25 00:00:00.0000, 5.173895151942932E+07, 2.874387811885801E+08, -3.297698439143847E+07,
2460007.500000000, A.D. 2023-Mar-04 00:00:00.0000, 3.874479671750715E+07, 2.911893463658952E+08, -3.291487986273126E+07,
2460014.500000000, A.D. 2023-Mar-11 00:00:00.0000, 2.567778171894276E+07, 2.943926731956319E+08, -3.279091497740942E+07,
2460021.500000000, A.D. 2023-Mar-18 00:00:00.0000, 1.256329728210728E+07, 2.970523362621203E+08, -3.260639155152063E+07,
2460028.500000000, A.D. 2023-Mar-25 00:00:00.0000, -5.740300174867762E+05, 2.991731319577551E+08, -3.236271622930564E+07,
2460035.500000000, A.D. 2023-Apr-01 00:00:00.0000, -1.371038903673323E+07, 3.007609845700105E+08, -3.206138854714695E+07,
2460042.500000000, A.D. 2023-Apr-08 00:00:00.0000, -2.682282501528938E+07, 3.018228541336619E+08, -3.170398928346229E+07,
2460049.500000000, A.D. 2023-Apr-15 00:00:00.0000, -3.988927322444980E+07, 3.023666459208816E+08, -3.129216905306689E+07,
2460056.500000000, A.D. 2023-Apr-22 00:00:00.0000, -5.288858422958310E+07, 3.024011193498981E+08, -3.082763762574819E+07,
2460063.500000000, A.D. 2023-Apr-29 00:00:00.0000, -6.580053879507128E+07, 3.019357992795485E+08, -3.031215408947858E+07,
2460070.500000000, A.D. 2023-May-06 00:00:00.0000, -7.860585495409061E+07, 3.009808920504190E+08, -2.974751759047532E+07,
2460077.500000000, A.D. 2023-May-13 00:00:00.0000, -9.128618898421477E+07, 2.995472058113528E+08, -2.913555865218347E+07,
2460084.500000000, A.D. 2023-May-20 00:00:00.0000, -1.038241308147950E+08, 2.976460749570521E+08, -2.847813114024532E+07,
2460091.500000000, A.D. 2023-May-27 00:00:00.0000, -1.162031944101957E+08, 2.952892888668185E+08, -2.777710489003308E+07,
2460098.500000000, A.D. 2023-Jun-03 00:00:00.0000, -1.284078037744836E+08, 2.924890251030242E+08, -2.703435898867075E+07,
2460105.500000000, A.D. 2023-Jun-10 00:00:00.0000, -1.404232752152002E+08, 2.892577871120203E+08, -2.625177569716226E+07,
2460112.500000000, A.D. 2023-Jun-17 00:00:00.0000, -1.522357963920255E+08, 2.856083463584339E+08, -2.543123500272439E+07,
2460119.500000000, A.D. 2023-Jun-24 00:00:00.0000, -1.638324023960431E+08, 2.815536888843352E+08, -2.457460979895593E+07,
2460126.500000000, A.D. 2023-Jul-01 00:00:00.0000, -1.752009491230158E+08, 2.771069670123342E+08, -2.368376161925960E+07,
2460133.500000000, A.D. 2023-Jul-08 00:00:00.0000, -1.863300860831794E+08, 2.722814568732953E+08, -2.276053667153655E+07,
2460140.500000000, A.D. 2023-Jul-15 00:00:00.0000, -1.972092303381983E+08, 2.670905187621971E+08, -2.180676225583912E+07,
2460147.500000000, A.D. 2023-Jul-22 00:00:00.0000, -2.078285384042917E+08, 2.615475590877593E+08, -2.082424393610741E+07,
$$EOE